[
  {
    "COMMENT": "GENERATED VIA SPACETRACK.ORG API",
    "ORIGINATOR": "JSPOC",
    "NORAD_CAT_ID": "40076",
    "OBJECT_NAME": "TDS 1",
    "OBJECT_TYPE": "PAYLOAD",
    "CLASSIFICATION_TYPE": "U",
    "INTLDES": "14037H",
    "EPOCH": "2016-08-24 02:14:19",
    "EPOCH_MICROSECONDS": "821408",
    "MEAN_MOTION": "14.81242136",
    "ECCENTRICITY": "0.0005206",
    "INCLINATION": "98.3253",
    "RA_OF_ASC_NODE": "330.6887",
    "ARG_OF_PERICENTER": "318.7678",
    "MEAN_ANOMALY": "41.3144",
    "EPHEMERIS_TYPE": "0",
    "ELEMENT_SET_NO": "999",
    "REV_AT_EPOCH": "11504",
    "BSTAR": "3.0893e-05",
    "MEAN_MOTION_DOT": "1.83e-06",
    "MEAN_MOTION_DDOT": "0",
    "FILE": "2077252",
    "TLE_LINE0": "0 TDS 1",
    "TLE_LINE1": "1 40076U 14037H   16237.09328497  .00000183  00000-0  30893-4 0  9992",
    "TLE_LINE2": "2 40076  98.3253 330.6887 0005206 318.7678  41.3144 14.81242136115047",
    "OBJECT_ID": "2014-037H",
    "OBJECT_NUMBER": "40076",
    "SEMIMAJOR_AXIS": "7003.543",
    "PERIOD": "97.215",
    "APOGEE": "629.054",
    "PERIGEE": "621.762"
  },
  {
    "COMMENT": "GENERATED VIA SPACETRACK.ORG API",
    "ORIGINATOR": "JSPOC",
    "NORAD_CAT_ID": "40076",
    "OBJECT_NAME": "TDS 1",
    "OBJECT_TYPE": "PAYLOAD",
    "CLASSIFICATION_TYPE": "U",
    "INTLDES": "14037H",
    "EPOCH": "2016-08-24 08:43:25",
    "EPOCH_MICROSECONDS": "596480",
    "MEAN_MOTION": "14.81242794",
    "ECCENTRICITY": "0.0005194",
    "INCLINATION": "98.3251",
    "RA_OF_ASC_NODE": "330.9693",
    "ARG_OF_PERICENTER": "317.361",
    "MEAN_ANOMALY": "42.7201",
    "EPHEMERIS_TYPE": "0",
    "ELEMENT_SET_NO": "999",
    "REV_AT_EPOCH": "11508",
    "BSTAR": "4.215e-05",
    "MEAN_MOTION_DOT": "2.71e-06",
    "MEAN_MOTION_DDOT": "0",
    "FILE": "2077397",
    "TLE_LINE0": "0 TDS 1",
    "TLE_LINE1": "1 40076U 14037H   16237.36349070  .00000271  00000-0  42150-4 0  9999",
    "TLE_LINE2": "2 40076  98.3251 330.9693 0005194 317.3610  42.7201 14.81242794115083",
    "OBJECT_ID": "2014-037H",
    "OBJECT_NUMBER": "40076",
    "SEMIMAJOR_AXIS": "7003.540",
    "PERIOD": "97.215",
    "APOGEE": "629.043",
    "PERIGEE": "621.768"
  },
  {
    "COMMENT": "GENERATED VIA SPACETRACK.ORG API",
    "ORIGINATOR": "JSPOC",
    "NORAD_CAT_ID": "40076",
    "OBJECT_NAME": "TDS 1",
    "OBJECT_TYPE": "PAYLOAD",
    "CLASSIFICATION_TYPE": "U",
    "INTLDES": "14037H",
    "EPOCH": "2016-08-24 16:49:47",
    "EPOCH_MICROSECONDS": "841888",
    "MEAN_MOTION": "14.81243724",
    "ECCENTRICITY": "0.0005176",
    "INCLINATION": "98.325",
    "RA_OF_ASC_NODE": "331.3201",
    "ARG_OF_PERICENTER": "316.3251",
    "MEAN_ANOMALY": "43.7571",
    "EPHEMERIS_TYPE": "0",
    "ELEMENT_SET_NO": "999",
    "REV_AT_EPOCH": "11513",
    "BSTAR": "5.6533e-05",
    "MEAN_MOTION_DOT": "3.83e-06",
    "MEAN_MOTION_DDOT": "0",
    "FILE": "2077522",
    "TLE_LINE0": "0 TDS 1",
    "TLE_LINE1": "1 40076U 14037H   16237.70124817  .00000383  00000-0  56533-4 0  9991",
    "TLE_LINE2": "2 40076  98.3250 331.3201 0005176 316.3251  43.7571 14.81243724115133",
    "OBJECT_ID": "2014-037H",
    "OBJECT_NUMBER": "40076",
    "SEMIMAJOR_AXIS": "7003.538",
    "PERIOD": "97.215",
    "APOGEE": "629.028",
    "PERIGEE": "621.778"
  },
  {
    "COMMENT": "GENERATED VIA SPACETRACK.ORG API",
    "ORIGINATOR": "JSPOC",
    "NORAD_CAT_ID": "40076",
    "OBJECT_NAME": "TDS 1",
    "OBJECT_TYPE": "PAYLOAD",
    "CLASSIFICATION_TYPE": "U",
    "INTLDES": "14037H",
    "EPOCH": "2016-08-24 21:41:37",
    "EPOCH_MICROSECONDS": "160448",
    "MEAN_MOTION": "14.81243444",
    "ECCENTRICITY": "0.0005199",
    "INCLINATION": "98.3248",
    "RA_OF_ASC_NODE": "331.5302",
    "ARG_OF_PERICENTER": "315.7173",
    "MEAN_ANOMALY": "44.3598",
    "EPHEMERIS_TYPE": "0",
    "ELEMENT_SET_NO": "999",
    "REV_AT_EPOCH": "11516",
    "BSTAR": "4.7495e-05",
    "MEAN_MOTION_DOT": "3.13e-06",
    "MEAN_MOTION_DDOT": "0",
    "FILE": "2077829",
    "TLE_LINE0": "0 TDS 1",
    "TLE_LINE1": "1 40076U 14037H   16237.90390232 +.00000313 +00000-0 +47495-4 0  9999",
    "TLE_LINE2": "2 40076 098.3248 331.5302 0005199 315.7173 044.3598 14.81243444115163",
    "OBJECT_ID": "2014-037H",
    "OBJECT_NUMBER": "40076",
    "SEMIMAJOR_AXIS": "7003.538",
    "PERIOD": "97.215",
    "APOGEE": "629.045",
    "PERIGEE": "621.762"
  },
  {
    "COMMENT": "GENERATED VIA SPACETRACK.ORG API",
    "ORIGINATOR": "JSPOC",
    "NORAD_CAT_ID": "40076",
    "OBJECT_NAME": "TDS 1",
    "OBJECT_TYPE": "PAYLOAD",
    "CLASSIFICATION_TYPE": "U",
    "INTLDES": "14037H",
    "EPOCH": "2016-08-25 00:56:10",
    "EPOCH_MICROSECONDS": "103712",
    "MEAN_MOTION": "14.81243496",
    "ECCENTRICITY": "0.0005175",
    "INCLINATION": "98.3249",
    "RA_OF_ASC_NODE": "331.6705",
    "ARG_OF_PERICENTER": "315.2804",
    "MEAN_ANOMALY": "44.7987",
    "EPHEMERIS_TYPE": "0",
    "ELEMENT_SET_NO": "999",
    "REV_AT_EPOCH": "11518",
    "BSTAR": "4.6685e-05",
    "MEAN_MOTION_DOT": "3.06e-06",
    "MEAN_MOTION_DDOT": "0",
    "FILE": "2077650",
    "TLE_LINE0": "0 TDS 1",
    "TLE_LINE1": "1 40076U 14037H   16238.03900583  .00000306  00000-0  46685-4 0  9992",
    "TLE_LINE2": "2 40076  98.3249 331.6705 0005175 315.2804  44.7987 14.81243496115187",
    "OBJECT_ID": "2014-037H",
    "OBJECT_NUMBER": "40076",
    "SEMIMAJOR_AXIS": "7003.538",
    "PERIOD": "97.215",
    "APOGEE": "629.028",
    "PERIGEE": "621.779"
  },
  {
    "COMMENT": "GENERATED VIA SPACETRACK.ORG API",
    "ORIGINATOR": "JSPOC",
    "NORAD_CAT_ID": "40076",
    "OBJECT_NAME": "TDS 1",
    "OBJECT_TYPE": "PAYLOAD",
    "CLASSIFICATION_TYPE": "U",
    "INTLDES": "14037H",
    "EPOCH": "2016-08-25 09:02:32",
    "EPOCH_MICROSECONDS": "319744",
    "MEAN_MOTION": "14.8124409",
    "ECCENTRICITY": "0.0005166",
    "INCLINATION": "98.3247",
    "RA_OF_ASC_NODE": "332.0213",
    "ARG_OF_PERICENTER": "313.5932",
    "MEAN_ANOMALY": "46.4849",
    "EPHEMERIS_TYPE": "0",
    "ELEMENT_SET_NO": "999",
    "REV_AT_EPOCH": "11523",
    "BSTAR": "5.2665e-05",
    "MEAN_MOTION_DOT": "3.53e-06",
    "MEAN_MOTION_DDOT": "0",
    "FILE": "2077759",
    "TLE_LINE0": "0 TDS 1",
    "TLE_LINE1": "1 40076U 14037H   16238.37676296  .00000353  00000-0  52665-4 0  9997",
    "TLE_LINE2": "2 40076  98.3247 332.0213 0005166 313.5932  46.4849 14.81244090115230",
    "OBJECT_ID": "2014-037H",
    "OBJECT_NUMBER": "40076",
    "SEMIMAJOR_AXIS": "7003.536",
    "PERIOD": "97.215",
    "APOGEE": "629.019",
    "PERIGEE": "621.783"
  },
  {
    "COMMENT": "GENERATED VIA SPACETRACK.ORG API",
    "ORIGINATOR": "JSPOC",
    "NORAD_CAT_ID": "40076",
    "OBJECT_NAME": "TDS 1",
    "OBJECT_TYPE": "PAYLOAD",
    "CLASSIFICATION_TYPE": "U",
    "INTLDES": "14037H",
    "EPOCH": "2016-08-25 17:08:54",
    "EPOCH_MICROSECONDS": "803616",
    "MEAN_MOTION": "14.8125391",
    "ECCENTRICITY": "0.0004762",
    "INCLINATION": "98.3248",
    "RA_OF_ASC_NODE": "332.3724",
    "ARG_OF_PERICENTER": "311.6585",
    "MEAN_ANOMALY": "48.4716",
    "EPHEMERIS_TYPE": "0",
    "ELEMENT_SET_NO": "999",
    "REV_AT_EPOCH": "11528",
    "BSTAR": "0.00031803",
    "MEAN_MOTION_DOT": "2.477e-05",
    "MEAN_MOTION_DDOT": "0",
    "FILE": "2077856",
    "TLE_LINE0": "0 TDS 1",
    "TLE_LINE1": "1 40076U 14037H   16238.71452319  .00002477  00000-0  31803-3 0  9992",
    "TLE_LINE2": "2 40076  98.3248 332.3724 0004762 311.6585  48.4716 14.81253910115286",
    "OBJECT_ID": "2014-037H",
    "OBJECT_NUMBER": "40076",
    "SEMIMAJOR_AXIS": "7003.505",
    "PERIOD": "97.214",
    "APOGEE": "628.706",
    "PERIGEE": "622.035"
  },
  {
    "COMMENT": "GENERATED VIA SPACETRACK.ORG API",
    "ORIGINATOR": "JSPOC",
    "NORAD_CAT_ID": "40076",
    "OBJECT_NAME": "TDS 1",
    "OBJECT_TYPE": "PAYLOAD",
    "CLASSIFICATION_TYPE": "U",
    "INTLDES": "14037H",
    "EPOCH": "2016-08-25 17:08:54",
    "EPOCH_MICROSECONDS": "566880",
    "MEAN_MOTION": "14.81244332",
    "ECCENTRICITY": "0.0005186",
    "INCLINATION": "98.3245",
    "RA_OF_ASC_NODE": "332.3717",
    "ARG_OF_PERICENTER": "312.5152",
    "MEAN_ANOMALY": "47.5619",
    "EPHEMERIS_TYPE": "0",
    "ELEMENT_SET_NO": "999",
    "REV_AT_EPOCH": "11528",
    "BSTAR": "5.1929e-05",
    "MEAN_MOTION_DOT": "3.47e-06",
    "MEAN_MOTION_DDOT": "0",
    "FILE": "2077954",
    "TLE_LINE0": "0 TDS 1",
    "TLE_LINE1": "1 40076U 14037H   16238.71452045  .00000347  00000-0  51929-4 0  9994",
    "TLE_LINE2": "2 40076  98.3245 332.3717 0005186 312.5152  47.5619 14.81244332115286",
    "OBJECT_ID": "2014-037H",
    "OBJECT_NUMBER": "40076",
    "SEMIMAJOR_AXIS": "7003.536",
    "PERIOD": "97.215",
    "APOGEE": "629.033",
    "PERIGEE": "621.769"
  },
  {
    "COMMENT": "GENERATED VIA SPACETRACK.ORG API",
    "ORIGINATOR": "JSPOC",
    "NORAD_CAT_ID": "40076",
    "OBJECT_NAME": "TDS 1",
    "OBJECT_TYPE": "PAYLOAD",
    "CLASSIFICATION_TYPE": "U",
    "INTLDES": "14037H",
    "EPOCH": "2016-08-25 20:23:27",
    "EPOCH_MICROSECONDS": "468672",
    "MEAN_MOTION": "14.81244051",
    "ECCENTRICITY": "0.0005182",
    "INCLINATION": "98.3245",
    "RA_OF_ASC_NODE": "332.5119",
    "ARG_OF_PERICENTER": "311.7614",
    "MEAN_ANOMALY": "48.3136",
    "EPHEMERIS_TYPE": "0",
    "ELEMENT_SET_NO": "999",
    "REV_AT_EPOCH": "11530",
    "BSTAR": "4.4951e-05",
    "MEAN_MOTION_DOT": "2.93e-06",
    "MEAN_MOTION_DDOT": "0",
    "FILE": "2078281",
    "TLE_LINE0": "0 TDS 1",
    "TLE_LINE1": "1 40076U 14037H   16238.84962348 +.00000293 +00000-0 +44951-4 0  9997",
    "TLE_LINE2": "2 40076 098.3245 332.5119 0005182 311.7614 048.3136 14.81244051115308",
    "OBJECT_ID": "2014-037H",
    "OBJECT_NUMBER": "40076",
    "SEMIMAJOR_AXIS": "7003.537",
    "PERIOD": "97.215",
    "APOGEE": "629.031",
    "PERIGEE": "621.772"
  }
]
